{
  "links" : {
    "next" : "https://api.nasa.gov/neo/rest/v1/feed?start_date=2009-01-16&end_date=2009-01-16&detailed=true&api_key=t0TVs3DtDT2H8Oy2Zy8m2eVrNsAVKAexjcZXUckd",
    "prev" : "https://api.nasa.gov/neo/rest/v1/feed?start_date=2009-01-14&end_date=2009-01-14&detailed=true&api_key=t0TVs3DtDT2H8Oy2Zy8m2eVrNsAVKAexjcZXUckd",
    "self" : "https://api.nasa.gov/neo/rest/v1/feed?start_date=2009-01-15&end_date=2009-01-15&detailed=true&api_key=t0TVs3DtDT2H8Oy2Zy8m2eVrNsAVKAexjcZXUckd"
  },
  "element_count" : 8,
  "near_earth_objects" : {
    "2009-01-15" : [ {
      "links" : {
        "self" : "https://api.nasa.gov/neo/rest/v1/neo/3367831?api_key=t0TVs3DtDT2H8Oy2Zy8m2eVrNsAVKAexjcZXUckd"
      },
      "neo_reference_id" : "3367831",
      "name" : "(2007 CB19)",
      "nasa_jpl_url" : "http://ssd.jpl.nasa.gov/sbdb.cgi?sstr=3367831",
      "absolute_magnitude_h" : 20.9,
      "estimated_diameter" : {
        "kilometers" : {
          "estimated_diameter_min" : 0.1756123185,
          "estimated_diameter_max" : 0.3926810818
        },
        "meters" : {
          "estimated_diameter_min" : 175.6123184804,
          "estimated_diameter_max" : 392.6810818086
        },
        "miles" : {
          "estimated_diameter_min" : 0.1091204019,
          "estimated_diameter_max" : 0.2440006365
        },
        "feet" : {
          "estimated_diameter_min" : 576.1559189633,
          "estimated_diameter_max" : 1288.3238004408
        }
      },
      "is_potentially_hazardous_asteroid" : false,
      "close_approach_data" : [ {
        "close_approach_date" : "2009-01-15",
        "epoch_date_close_approach" : 1232006400000,
        "relative_velocity" : {
          "kilometers_per_second" : "16.780783763",
          "kilometers_per_hour" : "60410.8215468904",
          "miles_per_hour" : "37536.9351995108"
        },
        "miss_distance" : {
          "astronomical" : "0.3926590526",
          "lunar" : "152.7443695068",
          "kilometers" : "58740956",
          "miles" : "36499940"
        },
        "orbiting_body" : "Earth"
      } ],
      "orbital_data" : {
        "orbit_id" : "14",
        "orbit_determination_date" : "2017-04-06 09:07:05",
        "orbit_uncertainty" : "6",
        "minimum_orbit_intersection" : ".256523",
        "jupiter_tisserand_invariant" : "4.189",
        "epoch_osculation" : "2458000.5",
        "eccentricity" : ".3631599656626933",
        "semi_major_axis" : "1.624750693623539",
        "inclination" : "18.681001228304",
        "ascending_node_longitude" : "143.4163514917063",
        "orbital_period" : "756.4470323802517",
        "perihelion_distance" : "1.034706287516778",
        "perihelion_argument" : "273.8872226525935",
        "aphelion_distance" : "2.214795099730301",
        "perihelion_time" : "2457834.069829382244",
        "mean_anomaly" : "79.20562690802392",
        "mean_motion" : ".4759090651294072",
        "equinox" : "J2000"
      }
    }, {
      "links" : {
        "self" : "https://api.nasa.gov/neo/rest/v1/neo/3552666?api_key=t0TVs3DtDT2H8Oy2Zy8m2eVrNsAVKAexjcZXUckd"
      },
      "neo_reference_id" : "3552666",
      "name" : "(2010 WE9)",
      "nasa_jpl_url" : "http://ssd.jpl.nasa.gov/sbdb.cgi?sstr=3552666",
      "absolute_magnitude_h" : 20.0,
      "estimated_diameter" : {
        "kilometers" : {
          "estimated_diameter_min" : 0.2658,
          "estimated_diameter_max" : 0.5943468684
        },
        "meters" : {
          "estimated_diameter_min" : 265.8,
          "estimated_diameter_max" : 594.3468684194
        },
        "miles" : {
          "estimated_diameter_min" : 0.1651604118,
          "estimated_diameter_max" : 0.369309908
        },
        "feet" : {
          "estimated_diameter_min" : 872.047272,
          "estimated_diameter_max" : 1949.9569797852
        }
      },
      "is_potentially_hazardous_asteroid" : false,
      "close_approach_data" : [ {
        "close_approach_date" : "2009-01-15",
        "epoch_date_close_approach" : 1232006400000,
        "relative_velocity" : {
          "kilometers_per_second" : "23.8902071736",
          "kilometers_per_hour" : "86004.745824897",
          "miles_per_hour" : "53440.0044265867"
        },
        "miss_distance" : {
          "astronomical" : "0.3807222281",
          "lunar" : "148.1009521484",
          "kilometers" : "56955236",
          "miles" : "35390344"
        },
        "orbiting_body" : "Earth"
      } ],
      "orbital_data" : {
        "orbit_id" : "26",
        "orbit_determination_date" : "2017-04-06 08:55:31",
        "orbit_uncertainty" : "1",
        "minimum_orbit_intersection" : ".257202",
        "jupiter_tisserand_invariant" : "4.132",
        "epoch_osculation" : "2458000.5",
        "eccentricity" : ".2496177257747669",
        "semi_major_axis" : "1.554547622495336",
        "inclination" : "42.11913550969558",
        "ascending_node_longitude" : "295.5000736481248",
        "orbital_period" : "707.9530762299738",
        "perihelion_distance" : "1.166504980359479",
        "perihelion_argument" : "132.473130660825",
        "aphelion_distance" : "1.942590264631193",
        "perihelion_time" : "2458350.911330306284",
        "mean_anomaly" : "181.8129376850342",
        "mean_motion" : ".5085082784258662",
        "equinox" : "J2000"
      }
    }, {
      "links" : {
        "self" : "https://api.nasa.gov/neo/rest/v1/neo/3484926?api_key=t0TVs3DtDT2H8Oy2Zy8m2eVrNsAVKAexjcZXUckd"
      },
      "neo_reference_id" : "3484926",
      "name" : "(2010 AF3)",
      "nasa_jpl_url" : "http://ssd.jpl.nasa.gov/sbdb.cgi?sstr=3484926",
      "absolute_magnitude_h" : 26.1,
      "estimated_diameter" : {
        "kilometers" : {
          "estimated_diameter_min" : 0.0160160338,
          "estimated_diameter_max" : 0.0358129403
        },
        "meters" : {
          "estimated_diameter_min" : 16.0160337979,
          "estimated_diameter_max" : 35.8129403019
        },
        "miles" : {
          "estimated_diameter_min" : 0.0099518989,
          "estimated_diameter_max" : 0.0222531225
        },
        "feet" : {
          "estimated_diameter_min" : 52.5460443254,
          "estimated_diameter_max" : 117.4965270602
        }
      },
      "is_potentially_hazardous_asteroid" : false,
      "close_approach_data" : [ {
        "close_approach_date" : "2009-01-15",
        "epoch_date_close_approach" : 1232006400000,
        "relative_velocity" : {
          "kilometers_per_second" : "9.8072308182",
          "kilometers_per_hour" : "35306.0309454502",
          "miles_per_hour" : "21937.7946171882"
        },
        "miss_distance" : {
          "astronomical" : "0.1435698327",
          "lunar" : "55.8486633301",
          "kilometers" : "21477740",
          "miles" : "13345649"
        },
        "orbiting_body" : "Earth"
      } ],
      "orbital_data" : {
        "orbit_id" : "7",
        "orbit_determination_date" : "2017-04-06 08:58:38",
        "orbit_uncertainty" : "7",
        "minimum_orbit_intersection" : ".0488941",
        "jupiter_tisserand_invariant" : "5.977",
        "epoch_osculation" : "2458000.5",
        "eccentricity" : ".1236705770670777",
        "semi_major_axis" : "1.016597633772081",
        "inclination" : "11.81435725868507",
        "ascending_node_longitude" : "285.6517531285107",
        "orbital_period" : "374.3881279995126",
        "perihelion_distance" : ".8908744177584621",
        "perihelion_argument" : "289.9017977550428",
        "aphelion_distance" : "1.1423208497857",
        "perihelion_time" : "2457921.091012638158",
        "mean_anomaly" : "76.3572167819929",
        "mean_motion" : ".9615689523158936",
        "equinox" : "J2000"
      }
    } ]
  }
}